{"type": "FeatureCollection", "features": [{"type": "Feature", "id": "way/186253049", "properties": {"landuse": "recreation_ground", "name": "Highschool pitch", "id": "way/186253049"}, "geometry": {"type": "Polygon", "coordinates": [[[74.7533677, 13.3346508], [74.7533274, 13.3345856], [74.7533516, 13.3344551], [74.7534159, 13.3343037], [74.7539256, 13.3342802], [74.7539229, 13.3344786], [74.7533677, 13.3346508]]]}}, {"type": "Feature", "id": "way/186283592", "properties": {"landuse": "recreation_ground", "id": "way/186283592"}, "geometry": {"type": "Polygon", "coordinates": [[[74.7419738, 13.3311649], [74.7419524, 13.3310553], [74.742403, 13.3307003], [74.7425129, 13.3308569], [74.7420838, 13.3313032], [74.7419738, 13.3311649]]]}}, {"type": "Feature", "id": "way/186284501", "properties": {"landuse": "recreation_ground", "id": "way/186284501"}, "geometry": {"type": "Polygon", "coordinates": [[[74.7462305, 13.3421995], [74.7461286, 13.3421629], [74.746201, 13.341928], [74.7462546, 13.3417297], [74.746665, 13.3418445], [74.7465148, 13.3422725], [74.7462305, 13.3421995]]]}}, {"type": "Feature", "id": "way/189184393", "properties": {"landuse": "recreation_ground", "id": "way/189184393"}, "geometry": {"type": "Polygon", "coordinates": [[[74.7336467, 13.314104], [74.7337862, 13.3132714], [74.7339284, 13.3132061], [74.7347223, 13.3133445], [74.7346204, 13.3139552], [74.7345158, 13.3141562], [74.7343978, 13.3142032], [74.7338935, 13.3142032], [74.7336467, 13.314104]]]}}, {"type": "Feature", "id": "way/186260314", "properties": {"landuse": "recreation_ground", "name": "MIT Pitch", "id": "way/186260314"}, "geometry": {"type": "Polygon", "coordinates": [[[74.7931449, 13.3442982], [74.7938494, 13.3426775], [74.7949676, 13.3431376], [74.7942632, 13.3447583], [74.7931449, 13.3442982]]]}}, {"type": "Feature", "id": "way/186262701", "properties": {"landuse": "recreation_ground", "id": "way/186262701"}, "geometry": {"type": "Polygon", "coordinates": [[[74.7927452, 13.3440802], [74.7923911, 13.3434173], [74.7926835, 13.3432686], [74.7928122, 13.3429867], [74.7934425, 13.3432294], [74.7931019, 13.3440437], [74.7927452, 13.3440802]]]}}, {"type": "Feature", "id": "way/186263436", "properties": {"landuse": "recreation_ground", "id": "way/186263436"}, "geometry": {"type": "Polygon", "coordinates": [[[74.7863052, 13.3476869], [74.7863052, 13.3470058], [74.7876222, 13.3470788], [74.787421, 13.3477469], [74.7863052, 13.3476869]]]}}, {"type": "Feature", "id": "way/286438474", "properties": {"landuse": "recreation_ground", "name": "Madhavkripa School Pitch", "name:kn": "\u0cae\u0cbe\u0ca7\u0cb5\u0c95\u0cc3\u0caa\u0cbe \u0cb6\u0cbe\u0cb2\u0cc6", "id": "way/286438474"}, "geometry": {"type": "Polygon", "coordinates": [[[74.7851482, 13.34812], [74.7851214, 13.3480469], [74.7851857, 13.3479529], [74.7853681, 13.3478694], [74.7854861, 13.3479425], [74.7859036, 13.34841], [74.7855666, 13.3486106], [74.7853145, 13.348334], [74.7851482, 13.34812]]]}}, {"type": "Feature", "id": "way/186282269", "properties": {"leisure": "park", "id": "way/186282269"}, "geometry": {"type": "Polygon", "coordinates": [[[74.743359, 13.3307414], [74.7433081, 13.3306945], [74.7438097, 13.3301907], [74.7442388, 13.3305248], [74.7451588, 13.3311956], [74.7454419, 13.3314337], [74.744955, 13.3317619], [74.7448235, 13.3315636], [74.7444802, 13.3318167], [74.744389, 13.3317489], [74.743359, 13.3307414]]]}}, {"type": "Feature", "id": "way/186282272", "properties": {"leisure": "park", "id": "way/186282272"}, "geometry": {"type": "Polygon", "coordinates": [[[74.7446493, 13.3327751], [74.7446627, 13.3321669], [74.7455129, 13.3314518], [74.7460091, 13.3318668], [74.7446868, 13.3328351], [74.7446493, 13.3327751]]]}}, {"type": "Feature", "id": "way/435780626", "properties": {"leisure": "park", "id": "way/435780626"}, "geometry": {"type": "Polygon", "coordinates": [[[74.7349784, 13.324512], [74.7348361, 13.3244893], [74.7348644, 13.3244397], [74.7348768, 13.3244181], [74.734893, 13.3244211], [74.7349703, 13.3243419], [74.7350211, 13.3243578], [74.7349784, 13.324512]]]}}, {"type": "Feature", "id": "way/435907641", "properties": {"leisure": "pitch", "id": "way/435907641"}, "geometry": {"type": "Polygon", "coordinates": [[[74.726261, 13.3265762], [74.7264822, 13.3265797], [74.7264804, 13.3267777], [74.7262857, 13.3267639], [74.726245, 13.3267605], [74.726261, 13.3265762]]]}}, {"type": "Feature", "id": "way/552968490", "properties": {"leisure": "park", "name": "Police Parade Grounds", "id": "way/552968490"}, "geometry": {"type": "Polygon", "coordinates": [[[74.7575646, 13.3374501], [74.7575098, 13.337425], [74.7574484, 13.3369823], [74.7573678, 13.3363983], [74.7574194, 13.3363166], [74.7583519, 13.336122], [74.7584229, 13.3361722], [74.7587295, 13.337224], [74.758694, 13.3372648], [74.7580938, 13.3373842], [74.7575646, 13.3374501]]]}}, {"type": "Feature", "id": "way/171902840", "properties": {"leisure": "park", "id": "way/171902840"}, "geometry": {"type": "Polygon", "coordinates": [[[74.7908007, 13.3447095], [74.7907443, 13.3446129], [74.7907819, 13.3443493], [74.7907846, 13.3438535], [74.7911762, 13.3436656], [74.7912781, 13.3436656], [74.7916509, 13.3443337], [74.7908007, 13.3447095]]]}}, {"type": "Feature", "id": "way/171902845", "properties": {"leisure": "park", "id": "way/171902845"}, "geometry": {"type": "Polygon", "coordinates": [[[74.7919272, 13.3467425], [74.791726, 13.3463589], [74.7914873, 13.3459126], [74.7911815, 13.3452784], [74.791498, 13.3451297], [74.7918306, 13.3457456], [74.7923671, 13.3467999], [74.7919272, 13.3467425]]]}}, {"type": "Feature", "id": "way/186259462", "properties": {"leisure": "park", "name": "KMC Greens", "not:operator:wikidata": "Q3350560", "id": "way/186259462"}, "geometry": {"type": "Polygon", "coordinates": [[[74.786214, 13.3534205], [74.7862086, 13.3533683], [74.7867098, 13.3527852], [74.7868087, 13.3526702], [74.7871125, 13.3534231], [74.7873338, 13.3536469], [74.7874505, 13.353765], [74.7873296, 13.3538855], [74.7870187, 13.3541956], [74.7863267, 13.353529], [74.786214, 13.3534205]]]}}, {"type": "Feature", "id": "way/186259862", "properties": {"leisure": "park", "id": "way/186259862"}, "geometry": {"type": "Polygon", "coordinates": [[[74.7933353, 13.3537986], [74.7936886, 13.3533631], [74.7939288, 13.3535476], [74.7935755, 13.3539831], [74.7933353, 13.3537986]]]}}, {"type": "Feature", "id": "way/186262711", "properties": {"leisure": "pitch", "name": "Football Ground", "name:kn": "\u0cab\u0cc1\u0c9f\u0ccd\u0cac\u0cbe\u0cb2\u0ccd \u0c86\u0c9f\u0ca6 \u0cae\u0cc8\u0ca6\u0cbe\u0ca8", "sport": "soccer", "id": "way/186262711"}, "geometry": {"type": "Polygon", "coordinates": [[[74.7928364, 13.3429632], [74.7932674, 13.3419748], [74.7938558, 13.3421953], [74.7934586, 13.3432085], [74.7928364, 13.3429632]]]}}, {"type": "Feature", "id": "way/186275544", "properties": {"leisure": "park", "id": "way/186275544"}, "geometry": {"type": "Polygon", "coordinates": [[[74.7841742, 13.3486531], [74.7842, 13.3481663], [74.7842552, 13.3476448], [74.7848768, 13.3483272], [74.7841876, 13.3488898], [74.7841742, 13.3486531]]]}}, {"type": "Feature", "id": "way/186276686", "properties": {"leisure": "park", "id": "way/186276686"}, "geometry": {"type": "Polygon", "coordinates": [[[74.7860879, 13.3509334], [74.7859163, 13.3505785], [74.7859538, 13.3497878], [74.7867102, 13.3504089], [74.7861362, 13.350983], [74.7860879, 13.3509334]]]}}, {"type": "Feature", "id": "way/186276694", "properties": {"leisure": "park", "id": "way/186276694"}, "geometry": {"type": "Polygon", "coordinates": [[[74.7857869, 13.3519379], [74.7855909, 13.3516232], [74.785838, 13.3515531], [74.78615, 13.3519378], [74.7857869, 13.3519379]]]}}, {"type": "Feature", "id": "way/364433858", "properties": {"leisure": "park", "id": "way/364433858"}, "geometry": {"type": "Polygon", "coordinates": [[[74.7937609, 13.3527744], [74.7937507, 13.3526441], [74.7939359, 13.3526304], [74.7939461, 13.3527608], [74.7937609, 13.3527744]]]}}, {"type": "Feature", "id": "way/364433913", "properties": {"leisure": "park", "id": "way/364433913"}, "geometry": {"type": "Polygon", "coordinates": [[[74.7941707, 13.3524604], [74.7941629, 13.3523134], [74.7943523, 13.3523039], [74.7943543, 13.3523416], [74.7943082, 13.3523439], [74.7943111, 13.3523981], [74.7943623, 13.3523956], [74.7943652, 13.3524506], [74.7941707, 13.3524604]]]}}, {"type": "Feature", "id": "way/364433954", "properties": {"leisure": "park", "id": "way/364433954"}, "geometry": {"type": "Polygon", "coordinates": [[[74.7937949, 13.352269], [74.7937987, 13.3523382], [74.7936686, 13.3523449], [74.7936648, 13.3522757], [74.7937949, 13.352269]]]}}, {"type": "Feature", "id": "way/364434015", "properties": {"leisure": "park", "id": "way/364434015"}, "geometry": {"type": "Polygon", "coordinates": [[[74.7938517, 13.35257], [74.7936412, 13.3525791], [74.7936358, 13.352493], [74.7936707, 13.3524904], [74.7938517, 13.3524825], [74.7938517, 13.35257]]]}}, {"type": "Feature", "id": "way/364434607", "properties": {"leisure": "park", "id": "way/364434607"}, "geometry": {"type": "Polygon", "coordinates": [[[74.7940864, 13.352553], [74.7939543, 13.3525549], [74.7939537, 13.3525138], [74.7940857, 13.3525119], [74.7940864, 13.352553]]]}}, {"type": "Feature", "id": "way/364434679", "properties": {"leisure": "park", "id": "way/364434679"}, "geometry": {"type": "Polygon", "coordinates": [[[74.7939219, 13.3524586], [74.7939191, 13.3523603], [74.7939701, 13.3523589], [74.7939692, 13.3523253], [74.7940753, 13.3523225], [74.7940797, 13.3524759], [74.7939446, 13.3524796], [74.793944, 13.352458], [74.7939219, 13.3524586]]]}}, {"type": "Feature", "id": "way/706734279", "properties": {"leisure": "pitch", "sport": "basketball", "id": "way/706734279"}, "geometry": {"type": "Polygon", "coordinates": [[[74.7923318, 13.3488898], [74.7923621, 13.3486], [74.7928091, 13.3486598], [74.7927546, 13.3489443], [74.7923318, 13.3488898]]]}}, {"type": "Feature", "id": "way/709873266", "properties": {"leisure": "pitch", "sport": "cricket", "surface": "dirt", "id": "way/709873266"}, "geometry": {"type": "Polygon", "coordinates": [[[74.7825095, 13.3414116], [74.7824012, 13.3412435], [74.7822818, 13.3406719], [74.7826904, 13.3403653], [74.7832778, 13.3403455], [74.7832738, 13.3413463], [74.7825095, 13.3414116]]]}}, {"type": "Feature", "id": "way/709873277", "properties": {"leisure": "pitch", "sport": "cricket", "id": "way/709873277"}, "geometry": {"type": "Polygon", "coordinates": [[[74.79873, 13.3343689], [74.7987782, 13.3337817], [74.7989848, 13.3337843], [74.7989821, 13.3339879], [74.7991994, 13.3340035], [74.7992959, 13.3341105], [74.7992369, 13.3344237], [74.79873, 13.3343689]]]}}, {"type": "Feature", "id": "way/1174030711", "properties": {"leisure": "pitch", "name": "MIT Tennis Court", "sport": "tennis", "id": "way/1174030711"}, "geometry": {"type": "Polygon", "coordinates": [[[74.7947071, 13.3449212], [74.7947913, 13.3445795], [74.7951166, 13.344654], [74.7950362, 13.3449905], [74.7947071, 13.3449212]]]}}, {"type": "Feature", "id": "way/1493868572", "properties": {"leisure": "pitch", "sport": "cricket", "id": "way/1493868572"}, "geometry": {"type": "Polygon", "coordinates": [[[74.7924148, 13.3426579], [74.7920915, 13.3428171], [74.7918775, 13.3423418], [74.792183, 13.3419457], [74.7923978, 13.341945], [74.7924639, 13.3417965], [74.7931151, 13.342016], [74.7926433, 13.3430799], [74.7924148, 13.3426579]]]}}, {"type": "Feature", "id": "way/1506934168", "properties": {"access": "customers", "leisure": "pitch", "name": "Paddle Up Manipal", "sport": "pickleball", "id": "way/1506934168"}, "geometry": {"type": "Polygon", "coordinates": [[[74.7797375, 13.3480573], [74.7797489, 13.3478815], [74.7799121, 13.347884], [74.7799395, 13.3480865], [74.7797375, 13.3480573]]]}}, {"type": "Feature", "id": "way/171867412", "properties": {"leisure": "pitch", "name": "Cricket Stadium", "name:kn": "\u0c9c\u0cbf\u0cb2\u0ccd\u0cb2\u0cbe \u0cae\u0ca4\u0ccd\u0ca4\u0cc1 \u0cb8\u0ca4\u0ccd\u0cb0 \u0ca8\u0ccd\u0caf\u0cbe\u0caf\u0cbe\u0cb2\u0caf \u0c89\u0ca1\u0cc1\u0caa\u0cbf", "sport": "cricket", "id": "way/171867412"}, "geometry": {"type": "Polygon", "coordinates": [[[74.7854065, 13.3682765], [74.7853578, 13.3679877], [74.7854476, 13.367664], [74.7856469, 13.3674324], [74.7859319, 13.3672955], [74.7860744, 13.367274], [74.7863374, 13.3673036], [74.7865966, 13.3674358], [74.7867881, 13.3676579], [74.7868818, 13.368], [74.7868263, 13.3682923], [74.7866459, 13.3685509], [74.7863985, 13.3687046], [74.7861992, 13.3687519], [74.7859351, 13.368734], [74.7856844, 13.3686233], [74.7855416, 13.368498], [74.7854065, 13.3682765]]]}}, {"type": "Feature", "id": "way/171867415", "properties": {"leisure": "pitch", "name": "Football Ground", "name:kn": "\u0cab\u0cc1\u0c9f\u0ccd\u0cac\u0cbe\u0cb2\u0ccd \u0c86\u0c9f\u0ca6 \u0cae\u0cc8\u0ca6\u0cbe\u0ca8", "id": "way/171867415"}, "geometry": {"type": "Polygon", "coordinates": [[[74.7855396, 13.366761], [74.7855087, 13.3667612], [74.7856872, 13.365391], [74.7864891, 13.3655319], [74.786406, 13.365973], [74.7864945, 13.365999], [74.7874398, 13.3661297], [74.7872011, 13.367056], [74.7855396, 13.366761]]]}}, {"type": "Feature", "id": "way/186254724", "properties": {"leisure": "park", "id": "way/186254724"}, "geometry": {"type": "Polygon", "coordinates": [[[74.7857312, 13.3638616], [74.7857553, 13.3631727], [74.7862247, 13.3631962], [74.7862086, 13.3638147], [74.7860692, 13.3639477], [74.7857312, 13.3638616]]]}}, {"type": "Feature", "id": "way/186254725", "properties": {"leisure": "park", "id": "way/186254725"}, "geometry": {"type": "Polygon", "coordinates": [[[74.7857723, 13.3630295], [74.7858189, 13.3624082], [74.7862506, 13.3624603], [74.7862409, 13.3630605], [74.7857723, 13.3630295]]]}}, {"type": "Feature", "id": "way/186254738", "properties": {"leisure": "park", "name": "End Point Park", "id": "way/186254738"}, "geometry": {"type": "Polygon", "coordinates": [[[74.7852068, 13.3704169], [74.7850472, 13.3701793], [74.7852176, 13.368666], [74.7863816, 13.3691409], [74.7867518, 13.3691931], [74.7863213, 13.370041], [74.7861979, 13.370636], [74.7861107, 13.3708579], [74.785522, 13.3707769], [74.7852068, 13.3704169]]]}}, {"type": "Feature", "id": "way/718319022", "properties": {"leisure": "pitch", "sport": "volleyball", "id": "way/718319022"}, "geometry": {"type": "Polygon", "coordinates": [[[74.7800708, 13.3939997], [74.7800815, 13.3936683], [74.7802827, 13.3936578], [74.7802478, 13.3940101], [74.7800708, 13.3939997]]]}}, {"type": "Feature", "id": "way/718319023", "properties": {"leisure": "pitch", "sport": "cricket", "id": "way/718319023"}, "geometry": {"type": "Polygon", "coordinates": [[[74.7798079, 13.3936709], [74.7797919, 13.394031], [74.7793117, 13.3939788], [74.7793171, 13.3936631], [74.7798079, 13.3936709]]]}}, {"type": "Feature", "id": "way/1306227336", "properties": {"access": "yes", "indoor": "no", "leisure": "pitch", "lit": "yes", "sport": "tennis", "surface": "tartan", "id": "way/1306227336"}, "geometry": {"type": "Polygon", "coordinates": [[[74.7877481, 13.3556124], [74.7878819, 13.3553076], [74.7880394, 13.3553628], [74.7879024, 13.3556737], [74.7877481, 13.3556124]]]}}, {"type": "Feature", "id": "way/1306227337", "properties": {"access": "yes", "leisure": "pitch", "lit": "yes", "sport": "tennis", "surface": "tartan", "id": "way/1306227337"}, "geometry": {"type": "Polygon", "coordinates": [[[74.7879182, 13.3557426], [74.7880409, 13.3554439], [74.7882031, 13.3555052], [74.7880882, 13.3558054], [74.7879182, 13.3557426]]]}}]}