{"type": "FeatureCollection", "features": [{"type": "Feature", "geometry": {"type": "Point", "coordinates": [74.7455, 13.3415]}, "properties": {"name": "Beedinagudde Dry Waste Center / MRF", "type": "DWCC", "subtype": "Decentralized DWC + MRF", "operator": "Udupi CMC / SHGs", "status": "Functional", "description": "Multiple sheds, conveyor belts, shredder. Key dry waste center inside city.", "address": "Shardamantapa Beedinagudde Rd, Kasturba Nagara, Maruthi Veethika, Udupi 576101", "icon": "dwcc", "ward": "Kasturba Nagar (Ward 24)"}}, {"type": "Feature", "geometry": {"type": "Point", "coordinates": [74.737, 13.3377]}, "properties": {"name": "Karavali Junction Dry Waste Center", "type": "DWCC", "subtype": "Dry Waste Collection Centre", "operator": "Udupi CMC", "status": "Announced", "description": "One of three announced dry waste collection centers for Udupi city", "address": "Near Karavali Junction, Udupi", "icon": "dwcc", "geocode_accuracy": "approximate"}}, {"type": "Feature", "geometry": {"type": "Point", "coordinates": [74.7868, 13.352]}, "properties": {"name": "Manipal Dry Waste Center", "type": "DWCC", "subtype": "Dry Waste Collection Centre", "operator": "Udupi CMC", "status": "Planned", "description": "Third announced dry waste collection center for Udupi city, in Manipal area", "address": "Manipal, Udupi district", "icon": "dwcc", "ward": "Manipal (Ward 18)", "geocode_accuracy": "approximate"}}]}