{
  "type": "FeatureCollection",
  "features": [
    {
      "type": "Feature",
      "geometry": {
        "type": "Point",
        "coordinates": [
          77.650711,
          12.896183
        ]
      },
      "properties": {
        "Name": "Document/bio_mithanization_unit",
        "FolderPath": "0   -1  0.00000000000e",
        "PopupInfo": "-1         0          0Place",
        "HasLabel": "mark",
        "_lat": 12.896183,
        "_lon": 77.650711,
        "_dist_to_hsr_km": 2.1
      }
    },
    {
      "type": "Feature",
      "geometry": {
        "type": "Point",
        "coordinates": [
          77.626697,
          12.872922
        ]
      },
      "properties": {
        "Name": "Document/bio_mithanization_unit",
        "FolderPath": "0   -1  0.00000000000e",
        "PopupInfo": "-1         0          0Place",
        "HasLabel": "mark",
        "_lat": 12.872922,
        "_lon": 77.626697,
        "_dist_to_hsr_km": 5.07
      }
    },
    {
      "type": "Feature",
      "geometry": {
        "type": "Point",
        "coordinates": [
          77.580367,
          12.932492
        ]
      },
      "properties": {
        "Name": "Document/bio_mithanization_unit",
        "FolderPath": "0   -1  0.00000000000e",
        "PopupInfo": "-1         0          0Place",
        "HasLabel": "mark",
        "_lat": 12.932492,
        "_lon": 77.580367,
        "_dist_to_hsr_km": 7.39
      }
    },
    {
      "type": "Feature",
      "geometry": {
        "type": "Point",
        "coordinates": [
          77.614044,
          12.933803
        ]
      },
      "properties": {
        "Name": "Document/bio_mithanization_unit",
        "FolderPath": "0   -1  0.00000000000e",
        "PopupInfo": "-1         0          0Place",
        "HasLabel": "mark",
        "_lat": 12.933803,
        "_lon": 77.614044,
        "_dist_to_hsr_km": 4.07
      }
    },
    {
      "type": "Feature",
      "geometry": {
        "type": "Point",
        "coordinates": [
          77.5805,
          12.976875
        ]
      },
      "properties": {
        "Name": "Document/bio_mithanization_unit",
        "FolderPath": "0   -1  0.00000000000e",
        "PopupInfo": "-1         0          0Place",
        "HasLabel": "mark",
        "_lat": 12.976875,
        "_lon": 77.5805,
        "_dist_to_hsr_km": 9.92
      }
    },
    {
      "type": "Feature",
      "geometry": {
        "type": "Point",
        "coordinates": [
          77.576706,
          12.965878
        ]
      },
      "properties": {
        "Name": "Document/bio_mithanization_unit",
        "FolderPath": "0   -1  0.00000000000e",
        "PopupInfo": "-1         0          0Place",
        "HasLabel": "mark",
        "_lat": 12.965878,
        "_lon": 77.576706,
        "_dist_to_hsr_km": 9.44
      }
    },
    {
      "type": "Feature",
      "geometry": {
        "type": "Point",
        "coordinates": [
          77.640711,
          12.960922
        ]
      },
      "properties": {
        "Name": "Document/bio_mithanization_unit",
        "FolderPath": "0   -1  0.00000000000e",
        "PopupInfo": "-1         0          0Place",
        "HasLabel": "mark",
        "_lat": 12.960922,
        "_lon": 77.640711,
        "_dist_to_hsr_km": 5.19
      }
    },
    {
      "type": "Feature",
      "geometry": {
        "type": "Point",
        "coordinates": [
          77.614061,
          12.933792
        ]
      },
      "properties": {
        "Name": "Document/bio_mithanization_unit",
        "FolderPath": "0   -1  0.00000000000e",
        "PopupInfo": "-1         0          0Place",
        "HasLabel": "mark",
        "_lat": 12.933792,
        "_lon": 77.614061,
        "_dist_to_hsr_km": 4.07
      }
    },
    {
      "type": "Feature",
      "geometry": {
        "type": "Point",
        "coordinates": [
          77.579978,
          12.936267
        ]
      },
      "properties": {
        "Name": "Document/bio_mithanization_unit",
        "FolderPath": "0   -1  0.00000000000e",
        "PopupInfo": "-1         0\u001a",
        "_lat": 12.936267,
        "_lon": 77.579978,
        "_dist_to_hsr_km": 7.55
      }
    }
  ]
}